{
  "norad_id": 31490,
  "name": "YAOGAN-2",
  "history": [
    {
      "epoch": "2026-04-13T07:11:05.923968Z",
      "apogee_km": 636.3857682357402,
      "perigee_km": 606.0229054900819,
      "latitude_deg": 6.557068140947433e-06,
      "longitude_deg": 12.455170159587613,
      "height_km": 632.0921336782573,
      "semi_major_axis_km": 6999.341336862911,
      "eccentricity": 0.00216898,
      "inclination_deg": 98.2734,
      "raan_deg": 321.722,
      "arg_perigee_deg": 121.4632,
      "mean_anomaly_deg": 238.8704,
      "mean_motion_rev_day": 14.82576125
    },
    {
      "epoch": "2026-04-14T20:26:24.073728Z",
      "apogee_km": 636.4093578131697,
      "perigee_km": 605.9930337495816,
      "latitude_deg": 8.851005460624254e-06,
      "longitude_deg": 173.70443733356913,
      "height_km": 630.9808513768143,
      "semi_major_axis_km": 6999.338195781375,
      "eccentricity": 0.0021728,
      "inclination_deg": 98.2732,
      "raan_deg": 323.3269,
      "arg_perigee_deg": 116.6432,
      "mean_anomaly_deg": 243.7009,
      "mean_motion_rev_day": 14.82577123
    },
    {
      "epoch": "2026-04-15T20:44:12.453792Z",
      "apogee_km": 636.4548039619558,
      "perigee_km": 605.9516791891692,
      "latitude_deg": -3.932626416031323e-05,
      "longitude_deg": 169.30182967505098,
      "height_km": 630.264553100485,
      "semi_major_axis_km": 6999.340241575563,
      "eccentricity": 0.002179,
      "inclination_deg": 98.2731,
      "raan_deg": 324.3737,
      "arg_perigee_deg": 113.5918,
      "mean_anomaly_deg": 246.7585,
      "mean_motion_rev_day": 14.82576473
    },
    {
      "epoch": "2026-04-16T21:02:00.765600Z",
      "apogee_km": 636.4766022359745,
      "perigee_km": 605.9272874772532,
      "latitude_deg": -2.061091328391144e-05,
      "longitude_deg": 164.89949749678502,
      "height_km": 629.5057698180533,
      "semi_major_axis_km": 6999.338944856613,
      "eccentricity": 0.0021823,
      "inclination_deg": 98.2728,
      "raan_deg": 325.4205,
      "arg_perigee_deg": 110.4974,
      "mean_anomaly_deg": 249.8583,
      "mean_motion_rev_day": 14.82576885
    },
    {
      "epoch": "2026-04-17T21:19:49.035072Z",
      "apogee_km": 636.4934722675789,
      "perigee_km": 605.9063699223925,
      "latitude_deg": 3.204557886476727e-05,
      "longitude_deg": 160.49713662674816,
      "height_km": 628.7268198856692,
      "semi_major_axis_km": 6999.336921094985,
      "eccentricity": 0.002185,
      "inclination_deg": 98.2725,
      "raan_deg": 326.4671,
      "arg_perigee_deg": 107.4011,
      "mean_anomaly_deg": 252.9593,
      "mean_motion_rev_day": 14.82577528
    },
    {
      "epoch": "2026-04-18T13:31:41.140704Z",
      "apogee_km": 636.5014854107721,
      "perigee_km": 605.8919990891654,
      "latitude_deg": 3.172259224161127e-05,
      "longitude_deg": -82.43739030321278,
      "height_km": 628.1953632303145,
      "semi_major_axis_km": 6999.333742249969,
      "eccentricity": 0.0021866,
      "inclination_deg": 98.2723,
      "raan_deg": 327.1649,
      "arg_perigee_deg": 105.3312,
      "mean_anomaly_deg": 255.0319,
      "mean_motion_rev_day": 14.82578538
    },
    {
      "epoch": "2026-04-19T20:18:14.063904Z",
      "apogee_km": 636.504900892267,
      "perigee_km": 605.878637928834,
      "latitude_deg": 3.434926792304385e-06,
      "longitude_deg": 175.9876150322491,
      "height_km": 627.1779353977506,
      "semi_major_axis_km": 6999.32876941055,
      "eccentricity": 0.0021878,
      "inclination_deg": 98.2723,
      "raan_deg": 328.491,
      "arg_perigee_deg": 101.4348,
      "mean_anomaly_deg": 258.9323,
      "mean_motion_rev_day": 14.82580118
    },
    {
      "epoch": "2026-04-20T07:38:32.447040Z",
      "apogee_km": 636.5162008631196,
      "perigee_km": 605.8623714199111,
      "latitude_deg": 4.320159401301356e-05,
      "longitude_deg": 5.933858809389974,
      "height_km": 626.8043690436189,
      "semi_major_axis_km": 6999.326286141515,
      "eccentricity": 0.00218977,
      "inclination_deg": 98.2723,
      "raan_deg": 328.9795,
      "arg_perigee_deg": 100.0149,
      "mean_anomaly_deg": 260.3536,
      "mean_motion_rev_day": 14.82580907
    },
    {
      "epoch": "2026-04-21T20:53:49.841664Z",
      "apogee_km": 636.5289459477935,
      "perigee_km": 605.8327376208636,
      "latitude_deg": 2.347283406618583e-05,
      "longitude_deg": 167.18607869788144,
      "height_km": 625.5560634777315,
      "semi_major_axis_km": 6999.317841784328,
      "eccentricity": 0.0021928,
      "inclination_deg": 98.2719,
      "raan_deg": 330.5842,
      "arg_perigee_deg": 95.3348,
      "mean_anomaly_deg": 265.0367,
      "mean_motion_rev_day": 14.8258359
    },
    {
      "epoch": "2026-04-22T11:28:30.512352Z",
      "apogee_km": 636.5271609285837,
      "perigee_km": 605.8294239327361,
      "latitude_deg": 9.933850093104127e-06,
      "longitude_deg": -51.45417775581221,
      "height_km": 625.0565700934865,
      "semi_major_axis_km": 6999.31529243066,
      "eccentricity": 0.00219291,
      "inclination_deg": 98.2718,
      "raan_deg": 331.2121,
      "arg_perigee_deg": 93.4752,
      "mean_anomaly_deg": 266.8969,
      "mean_motion_rev_day": 14.825844
    },
    {
      "epoch": "2026-04-23T11:46:18.202944Z",
      "apogee_km": 636.5120708664526,
      "perigee_km": 605.8335360531028,
      "latitude_deg": -4.687552965181266e-05,
      "longitude_deg": -55.854107595111564,
      "height_km": 624.222831795676,
      "semi_major_axis_km": 6999.309803459777,
      "eccentricity": 0.00219154,
      "inclination_deg": 98.2717,
      "raan_deg": 332.2587,
      "arg_perigee_deg": 90.3825,
      "mean_anomaly_deg": 269.9898,
      "mean_motion_rev_day": 14.82586144
    },
    {
      "epoch": "2026-04-24T13:41:16.992384Z",
      "apogee_km": 636.502575764941,
      "perigee_km": 605.8316251966326,
      "latitude_deg": -2.232747226770751e-05,
      "longitude_deg": -84.5470144338402,
      "height_km": 623.336693708515,
      "semi_major_axis_km": 6999.3041004807865,
      "eccentricity": 0.002191,
      "inclination_deg": 98.2715,
      "raan_deg": 333.3751,
      "arg_perigee_deg": 87.092,
      "mean_anomaly_deg": 273.2799,
      "mean_motion_rev_day": 14.82587956
    },
    {
      "epoch": "2026-04-25T13:59:04.462656Z",
      "apogee_km": 636.4775171458505,
      "perigee_km": 605.8429929200211,
      "latitude_deg": -3.722598302104744e-05,
      "longitude_deg": -88.94602810144511,
      "height_km": 622.5101169383954,
      "semi_major_axis_km": 6999.297255032935,
      "eccentricity": 0.0021884,
      "inclination_deg": 98.2715,
      "raan_deg": 334.4217,
      "arg_perigee_deg": 84.0112,
      "mean_anomaly_deg": 276.3593,
      "mean_motion_rev_day": 14.82590131
    },
    {
      "epoch": "2026-04-26T07:48:07.181568Z",
      "apogee_km": 636.4652243224427,
      "perigee_km": 605.8412297920004,
      "latitude_deg": 7.2827094822507345e-06,
      "longitude_deg": 3.8284013025036794,
      "height_km": 621.9032382499842,
      "semi_major_axis_km": 6999.290227057221,
      "eccentricity": 0.00218765,
      "inclination_deg": 98.2714,
      "raan_deg": 335.1892,
      "arg_perigee_deg": 81.7455,
      "mean_anomaly_deg": 278.6237,
      "mean_motion_rev_day": 14.82592364
    },
    {
      "epoch": "2026-04-27T14:34:39.019584Z",
      "apogee_km": 636.4472440858335,
      "perigee_km": 605.8463752699208,
      "latitude_deg": -4.6224566050866746e-05,
      "longitude_deg": -97.7425537950975,
      "height_km": 620.8781038727952,
      "semi_major_axis_km": 6999.283809677877,
      "eccentricity": 0.002186,
      "inclination_deg": 98.2712,
      "raan_deg": 336.5148,
      "arg_perigee_deg": 77.8583,
      "mean_anomaly_deg": 282.5076,
      "mean_motion_rev_day": 14.82594403
    },
    {
      "epoch": "2026-04-28T21:21:10.650240Z",
      "apogee_km": 636.4359756801896,
      "perigee_km": 605.8421400313036,
      "latitude_deg": -1.4458290867514198e-05,
      "longitude_deg": 160.68734522298507,
      "height_km": 619.8676297335918,
      "semi_major_axis_km": 6999.276057855746,
      "eccentricity": 0.0021855,
      "inclination_deg": 98.2711,
      "raan_deg": 337.8404,
      "arg_perigee_deg": 73.9771,
      "mean_anomaly_deg": 286.3846,
      "mean_motion_rev_day": 14.82596866
    },
    {
      "epoch": "2026-04-29T13:33:01.954944Z",
      "apogee_km": 636.4191374728789,
      "perigee_km": 605.8491208890682,
      "latitude_deg": 4.355041992197385e-05,
      "longitude_deg": -82.24384370557051,
      "height_km": 619.3401219552379,
      "semi_major_axis_km": 6999.271129180973,
      "eccentricity": 0.0021838,
      "inclination_deg": 98.2709,
      "raan_deg": 338.5382,
      "arg_perigee_deg": 71.9113,
      "mean_anomaly_deg": 288.4476,
      "mean_motion_rev_day": 14.82598432
    },
    {
      "epoch": "2026-04-30T13:50:48.806592Z",
      "apogee_km": 636.3946322409656,
      "perigee_km": 605.8636932537393,
      "latitude_deg": -3.168551451374865e-05,
      "longitude_deg": -86.64036373092001,
      "height_km": 618.5743620927453,
      "semi_major_axis_km": 6999.266162747353,
      "eccentricity": 0.00218101,
      "inclination_deg": 98.2708,
      "raan_deg": 339.5847,
      "arg_perigee_deg": 68.8485,
      "mean_anomaly_deg": 291.5055,
      "mean_motion_rev_day": 14.8260001
    },
    {
      "epoch": "2026-05-02T07:57:37.616832Z",
      "apogee_km": 636.3363877047996,
      "perigee_km": 605.8980309991703,
      "latitude_deg": 1.7852755978947354e-05,
      "longitude_deg": 1.7405084388016565,
      "height_km": 617.2840554340387,
      "semi_major_axis_km": 6999.254209351985,
      "eccentricity": 0.0021744,
      "inclination_deg": 98.2703,
      "raan_deg": 341.3985,
      "arg_perigee_deg": 63.5025,
      "mean_anomaly_deg": 296.8414,
      "mean_motion_rev_day": 14.82603808
    }
  ]
}